NORAD_CAT_ID,OBJECT_NAME,OBJECT_TYPE,EPOCH,MEAN_MOTION,ECCENTRICITY,INCLINATION,RA_OF_ASC_NODE,ARG_OF_PERICENTER,MEAN_ANOMALY,BSTAR,MEAN_MOTION_DOT,MEAN_MOTION_DDOT,TLE_LINE0,TLE_LINE1,TLE_LINE2,SEMIMAJOR_AXIS,PERIOD,APOGEE,PERIGEE,DECAYED
51801.0,STARLINK-3592,PAYLOAD,2023-03-12 09:27:03,15.08834131,0.0001527,53.2172,217.1151,91.7692,268.3475,5.1635e-05,5.34e-06,0.0,0 STARLINK-3592,1 51801U 22017AK  23071.39379241  .00000534  00000-0  51635-4 0  9994,2 51801  53.2172 217.1151 0001527  91.7692 268.3475 15.08834131 58871,6917.898,95.438,540.82,538.707,0.0
51801.0,STARLINK-3592,PAYLOAD,2023-03-12 18:59:22,15.08843889,0.0001227,53.2169,215.3309,82.6606,277.4526,0.00018401,2.642e-05,0.0,0 STARLINK-3592,1 51801U 22017AK  23071.79122828  .00002642  00000-0  18401-3 0  9990,2 51801  53.2169 215.3309 0001227  82.6606 277.4526 15.08843889 58938,6917.869,95.437,540.582,538.885,0.0
51801.0,STARLINK-3592,PAYLOAD,2023-03-13 09:17:50,15.08839772,0.0001187,53.2167,212.6543,89.1362,270.9766,9.9974e-05,1.304e-05,0.0,0 STARLINK-3592,1 51801U 22017AK  23072.38739102  .00001304  00000-0  99974-4 0  9994,2 51801  53.2167 212.6543 0001187  89.1362 270.9766 15.08839772 59023,6917.881,95.438,540.567,538.925,0.0
51801.0,STARLINK-3592,PAYLOAD,2023-03-13 18:50:09,15.08846069,0.0001492,53.2155,210.8701,78.1623,281.9537,0.00014245,1.98e-05,0.0,0 STARLINK-3592,1 51801U 22017AK  23072.78482802  .00001980  00000-0  14245-3 0  9997,2 51801  53.2155 210.8701 0001492  78.1623 281.9537 15.08846069 59084,6917.862,95.437,540.759,538.695,0.0
51801.0,STARLINK-3592,PAYLOAD,2023-03-14 12:19:23,15.08844995,0.0001257,53.2171,207.5968,107.1446,252.9684,7.6766e-05,9.34e-06,0.0,0 STARLINK-3592,1 51801U 22017AK  23073.51346627  .00000934  00000-0  76766-4 0  9998,2 51801  53.2171 207.5968 0001257 107.1446 252.9684 15.08844995 59194,6917.865,95.437,540.6,538.861,0.0
51801.0,STARLINK-3592,PAYLOAD,2023-03-14 17:05:32,15.08858111,0.0001313,53.217,206.7057,91.0024,269.1118,0.00026159,3.88e-05,0.0,0 STARLINK-3592,1 51801U 22017AK  23073.71217996  .00003880  00000-0  26159-3 0  9999,2 51801  53.2170 206.7057 0001313  91.0024 269.1118 15.08858111 59220,6917.825,95.436,540.598,538.782,0.0
51801.0,STARLINK-3592,PAYLOAD,2023-03-15 12:10:09,15.08853972,0.0001549,53.216,203.1386,93.7481,266.3688,0.00012009,1.624e-05,0.0,0 STARLINK-3592,1 51801U 22017AK  23074.50705752  .00001624  00000-0  12009-3 0  9992,2 51801  53.2160 203.1386 0001549  93.7481 266.3688 15.08853972 59346,6917.838,95.437,540.774,538.631,0.0
51801.0,STARLINK-3592,PAYLOAD,2023-03-16 00:53:14,15.08844764,0.0001288,53.2159,200.76,81.3326,278.7812,8.3442e-05,1.041e-05,0.0,0 STARLINK-3592,1 51801U 22017AK  23075.03697722  .00001041  00000-0  83442-4 0  9991,2 51801  53.2159 200.7600 0001288  81.3326 278.7812 15.08844764 59421,6917.866,95.437,540.622,538.84,0.0
51801.0,STARLINK-3592,PAYLOAD,2023-03-16 08:50:11,15.08818767,0.0001059,53.2168,199.2726,94.3008,265.8105,-0.00046059,-7.606e-05,0.0,0 STARLINK-3592,1 51801U 22017AK  23075.36819259 -.00007606  00000-0 -46059-3 0  9995,2 51801  53.2168 199.2726 0001059  94.3008 265.8105 15.08818767 59470,6917.945,95.439,540.543,539.078,0.0
51801.0,STARLINK-3592,PAYLOAD,2023-03-16 18:22:30,15.08833678,0.0001302,53.2168,197.4884,104.0912,256.0225,-0.00017704,-3.104e-05,0.0,0 STARLINK-3592,1 51801U 22017AK  23075.76562723 -.00003104  00000-0 -17704-3 0  9994,2 51801  53.2168 197.4884 0001302 104.0912 256.0225 15.08833678 59539,6917.9,95.438,540.665,538.864,0.0
51801.0,STARLINK-3592,PAYLOAD,2023-03-17 00:44:03,15.08818645,0.0002153,53.2153,196.2991,89.6682,270.4557,-0.00022544,-3.872e-05,0.0,0 STARLINK-3592,1 51801U 22017AK  23076.03060125 -.00003872  00000-0 -22544-3 0  9994,2 51801  53.2153 196.2991 0002153  89.6682 270.4557 15.08818645 59575,6917.946,95.439,541.3,538.321,0.0
51801.0,STARLINK-3592,PAYLOAD,2023-03-17 08:40:59,15.08816521,0.00011,53.2161,194.8128,94.9668,265.145,-0.00028559,-4.827e-05,0.0,0 STARLINK-3592,1 51801U 22017AK  23076.36180320 -.00004827  00000-0 -28559-3 0  9993,2 51801  53.2161 194.8128 0001100  94.9668 265.1450 15.08816521 59624,6917.952,95.439,540.578,539.056,0.0
51801.0,STARLINK-3592,PAYLOAD,2023-03-17 18:13:18,15.08833613,0.0001643,53.2199,193.0323,106.0035,254.1139,-4.388e-05,-9.86e-06,0.0,0 STARLINK-3592,1 51801U 22017AK  23076.75924341 -.00000986  00000-0 -43880-4 0  9992,2 51801  53.2199 193.0323 0001643 106.0035 254.1139 15.08833613 59687,6917.9,95.438,540.902,538.628,0.0
51801.0,STARLINK-3592,PAYLOAD,2023-03-18 08:31:46,15.08840943,0.0001159,53.2163,190.3527,98.5428,261.5695,0.00051824,7.97e-05,0.0,0 STARLINK-3592,1 51801U 22017AK  23077.35539985  .00007970  00000-0  51824-3 0  9999,2 51801  53.2163 190.3527 0001159  98.5428 261.5695 15.08840943 59770,6917.878,95.437,540.544,538.941,0.0
51801.0,STARLINK-3592,PAYLOAD,2023-03-18 16:28:41,15.08862023,0.0001099,53.2172,188.8656,103.0202,257.0913,0.00054866,8.46e-05,0.0,0 STARLINK-3592,1 51801U 22017AK  23077.68658716  .00008460  00000-0  54866-3 0  9993,2 51801  53.2172 188.8656 0001099 103.0202 257.0913 15.08862023 59822,6917.813,95.436,540.438,538.918,0.0
51801.0,STARLINK-3592,PAYLOAD,2023-03-19 08:22:33,15.08846445,0.0001681,53.2182,185.8956,101.1968,258.9213,0.00025303,3.742e-05,0.0,0 STARLINK-3592,1 51801U 22017AK  23078.34899610  .00003742  00000-0  25303-3 0  9999,2 51801  53.2182 185.8956 0001681 101.1968 258.9213 15.08846445 59922,6917.861,95.437,540.889,538.563,0.0
51801.0,STARLINK-3592,PAYLOAD,2023-03-19 13:08:42,15.08848818,0.0001458,53.2186,185.0036,108.7991,251.3159,0.00025719,3.809e-05,0.0,0 STARLINK-3592,1 51801U 22017AK  23078.54771389  .00003809  00000-0  25719-3 0  9998,2 51801  53.2186 185.0036 0001458 108.7991 251.3159 15.08848818 59953,6917.853,95.437,540.727,538.71,0.0
51801.0,STARLINK-3592,PAYLOAD,2023-03-19 14:44:05,15.08859134,0.0001335,53.2168,184.7033,100.374,259.7403,0.00026506,3.935e-05,0.0,0 STARLINK-3592,1 51801U 22017AK  23078.61394744  .00003935  00000-0  26506-3 0  9997,2 51801  53.2168 184.7033 0001335 100.3740 259.7403 15.08859134 59968,6917.822,95.436,540.61,538.763,0.0
51801.0,STARLINK-3592,PAYLOAD,2023-03-20 12:59:28,15.08850418,0.0001534,53.2177,180.5402,88.8092,271.3076,-2.4342e-06,-3.27e-06,0.0,0 STARLINK-3592,1 51801U 22017AK  23079.54130554 -.00000327  00000-0 -24342-5 0  9999,2 51801  53.2177 180.5402 0001534  88.8092 271.3076 15.08850418 60103,6917.849,95.437,540.775,538.652,0.0
51801.0,STARLINK-3592,PAYLOAD,2023-03-21 12:50:16,15.08844899,0.0001717,53.2179,176.0804,97.0363,263.0824,0.00010787,1.429e-05,0.0,0 STARLINK-3592,1 51801U 22017AK  23080.53490821  .00001429  00000-0  10787-3 0  9994,2 51801  53.2179 176.0804 0001717  97.0363 263.0824 15.08844899 60258,6917.865,95.437,540.918,538.543,0.0
51801.0,STARLINK-3592,PAYLOAD,2023-03-22 12:41:03,15.08841353,0.0001637,53.2178,171.618,108.3248,251.7922,0.00015191,2.131e-05,0.0,0 STARLINK-3592,1 51801U 22017AK  23081.52851114  .00002131  00000-0  15191-3 0  9995,2 51801  53.2178 171.6180 0001637 108.3248 251.7922 15.08841353 60406,6917.876,95.437,540.874,538.609,0.0
51801.0,STARLINK-3592,PAYLOAD,2023-03-23 10:56:27,15.08845563,0.000153,53.2182,167.4575,115.1775,244.9376,0.00025399,3.757e-05,0.0,0 STARLINK-3592,1 51801U 22017AK  23082.45586957  .00003757  00000-0  25399-3 0  9994,2 51801  53.2182 167.4575 0001530 115.1775 244.9376 15.08845563 60544,6917.863,95.437,540.787,538.67,0.0
51801.0,STARLINK-3592,PAYLOAD,2023-03-23 22:04:08,15.08855852,0.0001781,53.2184,165.3824,128.8972,231.2179,0.00035056,5.298e-05,0.0,0 STARLINK-3592,1 51801U 22017AK  23082.91954204  .00005298  00000-0  35056-3 0  9992,2 51801  53.2184 165.3824 0001781 128.8972 231.2179 15.08855852 60618,6917.832,95.437,540.929,538.465,0.0
51801.0,STARLINK-3592,PAYLOAD,2023-03-24 04:25:40,15.08883506,0.0001433,53.218,164.1894,121.3691,238.7441,0.00085375,0.00013342,0.0,0 STARLINK-3592,1 51801U 22017AK  23083.18449467  .00013342  00000-0  85375-3 0  9990,2 51801  53.2180 164.1894 0001433 121.3691 238.7441 15.08883506 60653,6917.747,95.435,540.604,538.621,0.0
51801.0,STARLINK-3592,PAYLOAD,2023-03-24 10:47:12,15.08911219,0.0001443,53.2181,163.0007,119.3556,240.7581,0.001909,0.00030284,0.0,0 STARLINK-3592,1 51801U 22017AK  23083.44944654  .00030284  00000-0  19090-2 0  9991,2 51801  53.2181 163.0007 0001443 119.3556 240.7581 15.08911219 60691,6917.663,95.433,540.526,538.529,0.0
51801.0,STARLINK-3592,PAYLOAD,2023-03-24 17:08:45,15.08861839,0.0001276,53.2179,161.8106,52.6878,307.4231,0.00010379,1.365e-05,0.0,0 STARLINK-3592,1 51801U 22017AK  23083.71441152  .00001365  00000-0  10379-3 0  9996,2 51801  53.2179 161.8106 0001276  52.6878 307.4231 15.08861839 60734,6917.814,95.436,540.561,538.796,0.0
51801.0,STARLINK-3592,PAYLOAD,2023-03-24 21:54:54,15.08803862,0.0001363,53.2171,160.9187,206.9281,153.164,-0.0022683,-0.00036171,0.0,0 STARLINK-3592,1 51801U 22017AK  23083.91313327 -.00036171  00000-0 -22683-2 0  9995,2 51801  53.2171 160.9187 0001363 206.9281 153.1640 15.08803862 60769,6917.991,95.44,540.799,538.913,0.0
51801.0,STARLINK-3592,PAYLOAD,2023-03-25 12:13:25,15.08793139,0.0001287,53.2162,158.2383,98.8976,261.2162,0.0017295,0.00027309,0.0,0 STARLINK-3592,1 51801U 22017AK  23084.50932299  .00027309  00000-0  17295-2 0  9990,2 51801  53.2162 158.2383 0001287  98.8976 261.2162 15.08793139 60856,6918.024,95.441,540.779,538.998,0.0
51801.0,STARLINK-3592,PAYLOAD,2023-03-25 15:24:12,15.08807486,0.0001279,53.216,157.6437,100.2386,259.875,0.0021205,0.00033591,0.0,0 STARLINK-3592,1 51801U 22017AK  23084.64180587  .00033591  00000-0  21205-2 0  9996,2 51801  53.2160 157.6437 0001279 100.2386 259.8750 15.08807486 60870,6917.98,95.44,540.73,538.96,0.0
51801.0,STARLINK-3592,PAYLOAD,2023-03-26 04:07:17,15.08842662,0.0001288,53.2164,155.2653,98.8011,261.3127,0.0019505,0.00030893,0.0,0 STARLINK-3592,1 51801U 22017AK  23085.17173016  .00030893  00000-0  19505-2 0  9996,2 51801  53.2164 155.2653 0001288  98.8011 261.3127 15.08842662 60955,6917.872,95.437,540.628,538.846,0.0
